<?xml version="1.0" encoding="UTF-8"?>
<ndm xmlns:xsi="http://www.w3.org/2001/XMLSchema-instance" xsi:noNamespaceSchemaLocation="https://sanaregistry.org/r/ndmxml_unqualified/ndmxml-2.0.0-master-2.0.xsd">
<omm id="CCSDS_OMM_VERS" version="2.0">
<header><CREATION_DATE/><ORIGINATOR/></header><body><segment><metadata><OBJECT_NAME>ONEWEB-0159</OBJECT_NAME><OBJECT_ID>2021-025W</OBJECT_ID><CENTER_NAME>EARTH</CENTER_NAME><REF_FRAME>TEME</REF_FRAME><TIME_SYSTEM>UTC</TIME_SYSTEM><MEAN_ELEMENT_THEORY>SGP4</MEAN_ELEMENT_THEORY></metadata><data><meanElements><EPOCH>2026-01-04T11:38:50.244000</EPOCH><MEAN_MOTION>13.13468918</MEAN_MOTION><ECCENTRICITY>.00016424</ECCENTRICITY><INCLINATION>87.8989</INCLINATION><RA_OF_ASC_NODE>352.7370</RA_OF_ASC_NODE><ARG_OF_PERICENTER>94.8614</ARG_OF_PERICENTER><MEAN_ANOMALY>265.2702</MEAN_ANOMALY></meanElements><tleParameters><EPHEMERIS_TYPE>0</EPHEMERIS_TYPE><CLASSIFICATION_TYPE>U</CLASSIFICATION_TYPE><NORAD_CAT_ID>48062</NORAD_CAT_ID><ELEMENT_SET_NO>999</ELEMENT_SET_NO><REV_AT_EPOCH>23211</REV_AT_EPOCH><BSTAR>.11723663E-2</BSTAR><MEAN_MOTION_DOT>.441E-5</MEAN_MOTION_DOT><MEAN_MOTION_DDOT>0</MEAN_MOTION_DDOT></tleParameters></data></segment></body></omm>
<omm id="CCSDS_OMM_VERS" version="2.0">
<header><CREATION_DATE/><ORIGINATOR/></header><body><segment><metadata><OBJECT_NAME>ONEWEB-0164</OBJECT_NAME><OBJECT_ID>2021-025X</OBJECT_ID><CENTER_NAME>EARTH</CENTER_NAME><REF_FRAME>TEME</REF_FRAME><TIME_SYSTEM>UTC</TIME_SYSTEM><MEAN_ELEMENT_THEORY>SGP4</MEAN_ELEMENT_THEORY></metadata><data><meanElements><EPOCH>2026-01-04T11:12:01.039680</EPOCH><MEAN_MOTION>13.13471817</MEAN_MOTION><ECCENTRICITY>.00017299</ECCENTRICITY><INCLINATION>87.8993</INCLINATION><RA_OF_ASC_NODE>352.7471</RA_OF_ASC_NODE><ARG_OF_PERICENTER>82.7626</ARG_OF_PERICENTER><MEAN_ANOMALY>277.3700</MEAN_ANOMALY></meanElements><tleParameters><EPHEMERIS_TYPE>0</EPHEMERIS_TYPE><CLASSIFICATION_TYPE>U</CLASSIFICATION_TYPE><NORAD_CAT_ID>48063</NORAD_CAT_ID><ELEMENT_SET_NO>999</ELEMENT_SET_NO><REV_AT_EPOCH>23209</REV_AT_EPOCH><BSTAR>.33425249E-4</BSTAR><MEAN_MOTION_DOT>.25E-6</MEAN_MOTION_DOT><MEAN_MOTION_DDOT>0</MEAN_MOTION_DDOT></tleParameters></data></segment></body></omm>
<omm id="CCSDS_OMM_VERS" version="2.0">
<header><CREATION_DATE/><ORIGINATOR/></header><body><segment><metadata><OBJECT_NAME>ONEWEB-0167</OBJECT_NAME><OBJECT_ID>2021-025Y</OBJECT_ID><CENTER_NAME>EARTH</CENTER_NAME><REF_FRAME>TEME</REF_FRAME><TIME_SYSTEM>UTC</TIME_SYSTEM><MEAN_ELEMENT_THEORY>SGP4</MEAN_ELEMENT_THEORY></metadata><data><meanElements><EPOCH>2026-01-04T11:52:15.450528</EPOCH><MEAN_MOTION>13.13471264</MEAN_MOTION><ECCENTRICITY>.00010473</ECCENTRICITY><INCLINATION>87.8981</INCLINATION><RA_OF_ASC_NODE>352.7672</RA_OF_ASC_NODE><ARG_OF_PERICENTER>68.6890</ARG_OF_PERICENTER><MEAN_ANOMALY>291.4351</MEAN_ANOMALY></meanElements><tleParameters><EPHEMERIS_TYPE>0</EPHEMERIS_TYPE><CLASSIFICATION_TYPE>U</CLASSIFICATION_TYPE><NORAD_CAT_ID>48064</NORAD_CAT_ID><ELEMENT_SET_NO>999</ELEMENT_SET_NO><REV_AT_EPOCH>23208</REV_AT_EPOCH><BSTAR>.81246242E-3</BSTAR><MEAN_MOTION_DOT>.309E-5</MEAN_MOTION_DOT><MEAN_MOTION_DDOT>0</MEAN_MOTION_DDOT></tleParameters></data></segment></body></omm>
<omm id="CCSDS_OMM_VERS" version="2.0">
<header><CREATION_DATE/><ORIGINATOR/></header><body><segment><metadata><OBJECT_NAME>ONEWEB-0166</OBJECT_NAME><OBJECT_ID>2021-025Z</OBJECT_ID><CENTER_NAME>EARTH</CENTER_NAME><REF_FRAME>TEME</REF_FRAME><TIME_SYSTEM>UTC</TIME_SYSTEM><MEAN_ELEMENT_THEORY>SGP4</MEAN_ELEMENT_THEORY></metadata><data><meanElements><EPOCH>2026-01-04T12:25:08.915520</EPOCH><MEAN_MOTION>13.13468568</MEAN_MOTION><ECCENTRICITY>.00017553</ECCENTRICITY><INCLINATION>87.8991</INCLINATION><RA_OF_ASC_NODE>352.7204</RA_OF_ASC_NODE><ARG_OF_PERICENTER>92.1348</ARG_OF_PERICENTER><MEAN_ANOMALY>267.9982</MEAN_ANOMALY></meanElements><tleParameters><EPHEMERIS_TYPE>0</EPHEMERIS_TYPE><CLASSIFICATION_TYPE>U</CLASSIFICATION_TYPE><NORAD_CAT_ID>48065</NORAD_CAT_ID><ELEMENT_SET_NO>999</ELEMENT_SET_NO><REV_AT_EPOCH>23216</REV_AT_EPOCH><BSTAR>-.69499842E-3</BSTAR><MEAN_MOTION_DOT>-.241E-5</MEAN_MOTION_DOT><MEAN_MOTION_DDOT>0</MEAN_MOTION_DDOT></tleParameters></data></segment></body></omm>
<omm id="CCSDS_OMM_VERS" version="2.0">
<header><CREATION_DATE/><ORIGINATOR/></header><body><segment><metadata><OBJECT_NAME>ONEWEB-0151</OBJECT_NAME><OBJECT_ID>2021-025AA</OBJECT_ID><CENTER_NAME>EARTH</CENTER_NAME><REF_FRAME>TEME</REF_FRAME><TIME_SYSTEM>UTC</TIME_SYSTEM><MEAN_ELEMENT_THEORY>SGP4</MEAN_ELEMENT_THEORY></metadata><data><meanElements><EPOCH>2026-01-04T12:27:35.577792</EPOCH><MEAN_MOTION>13.13468130</MEAN_MOTION><ECCENTRICITY>.00016218</ECCENTRICITY><INCLINATION>87.8993</INCLINATION><RA_OF_ASC_NODE>352.7469</RA_OF_ASC_NODE><ARG_OF_PERICENTER>82.7629</ARG_OF_PERICENTER><MEAN_ANOMALY>277.3684</MEAN_ANOMALY></meanElements><tleParameters><EPHEMERIS_TYPE>0</EPHEMERIS_TYPE><CLASSIFICATION_TYPE>U</CLASSIFICATION_TYPE><NORAD_CAT_ID>48066</NORAD_CAT_ID><ELEMENT_SET_NO>999</ELEMENT_SET_NO><REV_AT_EPOCH>23210</REV_AT_EPOCH><BSTAR>-.73897128E-3</BSTAR><MEAN_MOTION_DOT>-.257E-5</MEAN_MOTION_DOT><MEAN_MOTION_DDOT>0</MEAN_MOTION_DDOT></tleParameters></data></segment></body></omm>
<omm id="CCSDS_OMM_VERS" version="2.0">
<header><CREATION_DATE/><ORIGINATOR/></header><body><segment><metadata><OBJECT_NAME>ONEWEB-0170</OBJECT_NAME><OBJECT_ID>2021-025AB</OBJECT_ID><CENTER_NAME>EARTH</CENTER_NAME><REF_FRAME>TEME</REF_FRAME><TIME_SYSTEM>UTC</TIME_SYSTEM><MEAN_ELEMENT_THEORY>SGP4</MEAN_ELEMENT_THEORY></metadata><data><meanElements><EPOCH>2026-01-04T09:00:22.699872</EPOCH><MEAN_MOTION>13.13469671</MEAN_MOTION><ECCENTRICITY>.0001815</ECCENTRICITY><INCLINATION>87.8986</INCLINATION><RA_OF_ASC_NODE>352.7793</RA_OF_ASC_NODE><ARG_OF_PERICENTER>70.6783</ARG_OF_PERICENTER><MEAN_ANOMALY>289.4543</MEAN_ANOMALY></meanElements><tleParameters><EPHEMERIS_TYPE>0</EPHEMERIS_TYPE><CLASSIFICATION_TYPE>U</CLASSIFICATION_TYPE><NORAD_CAT_ID>48067</NORAD_CAT_ID><ELEMENT_SET_NO>999</ELEMENT_SET_NO><REV_AT_EPOCH>23204</REV_AT_EPOCH><BSTAR>-.68173895E-3</BSTAR><MEAN_MOTION_DOT>-.236E-5</MEAN_MOTION_DOT><MEAN_MOTION_DDOT>0</MEAN_MOTION_DDOT></tleParameters></data></segment></body></omm>
<omm id="CCSDS_OMM_VERS" version="2.0">
<header><CREATION_DATE/><ORIGINATOR/></header><body><segment><metadata><OBJECT_NAME>ONEWEB-0168</OBJECT_NAME><OBJECT_ID>2021-025AC</OBJECT_ID><CENTER_NAME>EARTH</CENTER_NAME><REF_FRAME>TEME</REF_FRAME><TIME_SYSTEM>UTC</TIME_SYSTEM><MEAN_ELEMENT_THEORY>SGP4</MEAN_ELEMENT_THEORY></metadata><data><meanElements><EPOCH>2026-01-04T12:17:50.225568</EPOCH><MEAN_MOTION>13.13469182</MEAN_MOTION><ECCENTRICITY>.00015829</ECCENTRICITY><INCLINATION>87.8995</INCLINATION><RA_OF_ASC_NODE>352.7389</RA_OF_ASC_NODE><ARG_OF_PERICENTER>89.6459</ARG_OF_PERICENTER><MEAN_ANOMALY>270.4851</MEAN_ANOMALY></meanElements><tleParameters><EPHEMERIS_TYPE>0</EPHEMERIS_TYPE><CLASSIFICATION_TYPE>U</CLASSIFICATION_TYPE><NORAD_CAT_ID>48068</NORAD_CAT_ID><ELEMENT_SET_NO>999</ELEMENT_SET_NO><REV_AT_EPOCH>23207</REV_AT_EPOCH><BSTAR>-.31568596E-3</BSTAR><MEAN_MOTION_DOT>-.103E-5</MEAN_MOTION_DOT><MEAN_MOTION_DDOT>0</MEAN_MOTION_DDOT></tleParameters></data></segment></body></omm>
<omm id="CCSDS_OMM_VERS" version="2.0">
<header><CREATION_DATE/><ORIGINATOR/></header><body><segment><metadata><OBJECT_NAME>ONEWEB-0173</OBJECT_NAME><OBJECT_ID>2021-025AD</OBJECT_ID><CENTER_NAME>EARTH</CENTER_NAME><REF_FRAME>TEME</REF_FRAME><TIME_SYSTEM>UTC</TIME_SYSTEM><MEAN_ELEMENT_THEORY>SGP4</MEAN_ELEMENT_THEORY></metadata><data><meanElements><EPOCH>2026-01-04T12:05:39.018912</EPOCH><MEAN_MOTION>13.13469181</MEAN_MOTION><ECCENTRICITY>.00013048</ECCENTRICITY><INCLINATION>87.8994</INCLINATION><RA_OF_ASC_NODE>352.7480</RA_OF_ASC_NODE><ARG_OF_PERICENTER>93.0059</ARG_OF_PERICENTER><MEAN_ANOMALY>267.1220</MEAN_ANOMALY></meanElements><tleParameters><EPHEMERIS_TYPE>0</EPHEMERIS_TYPE><CLASSIFICATION_TYPE>U</CLASSIFICATION_TYPE><NORAD_CAT_ID>48069</NORAD_CAT_ID><ELEMENT_SET_NO>999</ELEMENT_SET_NO><REV_AT_EPOCH>23231</REV_AT_EPOCH><BSTAR>.40556321E-3</BSTAR><MEAN_MOTION_DOT>.161E-5</MEAN_MOTION_DOT><MEAN_MOTION_DDOT>0</MEAN_MOTION_DDOT></tleParameters></data></segment></body></omm>

</ndm>
