ONEWEB-0159             
1 48062U 21025W   26004.48530374  .00000441  00000+0  11724-2 0  9991
2 48062  87.8989 352.7370 0001642  94.8614 265.2702 13.13468918232110
ONEWEB-0164             
1 48063U 21025X   26004.46667870  .00000025  00000+0  33425-4 0  9994
2 48063  87.8993 352.7471 0001730  82.7626 277.3700 13.13471817232096
ONEWEB-0167             
1 48064U 21025Y   26004.49462326  .00000309  00000+0  81246-3 0  9995
2 48064  87.8981 352.7672 0001047  68.6890 291.4351 13.13471264232088
ONEWEB-0166             
1 48065U 21025Z   26004.51746429 -.00000241  00000+0 -69500-3 0  9994
2 48065  87.8991 352.7204 0001755  92.1348 267.9982 13.13468568232167
ONEWEB-0151             
1 48066U 21025AA  26004.51916178 -.00000257  00000+0 -73897-3 0  9996
2 48066  87.8993 352.7469 0001622  82.7629 277.3684 13.13468130232106
ONEWEB-0170             
1 48067U 21025AB  26004.37526273 -.00000236  00000+0 -68174-3 0  9993
2 48067  87.8986 352.7793 0001815  70.6783 289.4543 13.13469670232041
ONEWEB-0168             
1 48068U 21025AC  26004.51238686 -.00000103  00000+0 -31569-3 0  9999
2 48068  87.8995 352.7389 0001583  89.6459 270.4851 13.13469182232078
ONEWEB-0173             
1 48069U 21025AD  26004.50392382  .00000161  00000+0  40556-3 0  9991
2 48069  87.8994 352.7480 0001305  93.0059 267.1220 13.13469181232316
